SILVERSAT               
1 66909U 98067XV  26058.14391365  .00146757  00000+0  12709-2 0  9993
2 66909  51.6256 118.7307 0005105  17.6107 342.5065 15.68158747 13536
ISS OBJECT XW           
1 66910U 98067XW  26057.35265649  .00112245  00000+0  10924-2 0  9994
2 66910  51.6265 123.1932 0004341  27.6872 332.4354 15.65404578 13401
ISS OBJECT XX           
1 66911U 98067XX  26057.45827257  .00192060  00000+0  15289-2 0  9997
2 66911  51.6219 121.6389 0006501  20.9484 339.1779 15.70039682 13428
ISS OBJECT XY           
1 66912U 98067XY  26058.15723772  .00075914  00000+0  86270-3 0  9990
2 66912  51.6278 120.3277 0002485  34.5227 325.5928 15.61632866 13506
ISS OBJECT XZ           
1 67683U 98067XZ  26057.58327148  .00040888  00000+0  69811-3 0  9993
2 67683  51.6313 126.9935 0009776 149.0473 211.1094 15.50854175  3061
GXIBA-1                 
1 67684U 98067YA  26057.57044840  .00072297  00000+0  11548-2 0  9990
2 67684  51.6306 126.9091 0011233 140.1266 220.0551 15.52453844  3067
CORAL                   
1 67685U 98067YB  26057.58101291  .00044531  00000+0  75186-3 0  9995
2 67685  51.6315 126.9792 0011675 145.1158 215.0598 15.51107174  3067
ISS OBJECT YC           
1 67686U 98067YC  26057.64294040  .00053017  00000+0  88335-3 0  9997
2 67686  51.6316 126.6439 0007613 114.2311 245.9475 15.51445447  3074
LEOPARD                 
1 67687U 98067YD  26058.16187174  .00036256  00000+0  61698-3 0  9994
2 67687  51.6317 124.1084 0007673 119.2183 240.9575 15.51023554  3070
ISS OBJECT YE           
1 67688U 98067YE  26057.57959780  .00049335  00000+0  82764-3 0  9998
2 67688  51.6319 126.9710 0007610 114.9063 245.2718 15.51284687  2981
CREW DRAGON 12          
1 67796U 26031A   26057.92898233  .00012356  00000+0  23739-3 0  9994
2 67796  51.6324 125.5516 0008331 137.1924 222.9714 15.48321702554638
