CCSDS_OMM_VERS = 2.0
CREATION_DATE  = 
ORIGINATOR     = 

OBJECT_NAME    = SILVERSAT
OBJECT_ID      = 1998-067XV
CENTER_NAME    = EARTH
REF_FRAME      = TEME
TIME_SYSTEM    = UTC
MEAN_ELEMENT_THEORY = SGP/SGP4

EPOCH          = 2026-02-27T03:27:14.139360
MEAN_MOTION    = 15.68158747
ECCENTRICITY   = .0005105
INCLINATION    = 51.6256
RA_OF_ASC_NODE = 118.7307
ARG_OF_PERICENTER = 17.6107
MEAN_ANOMALY   = 342.5065

EPHEMERIS_TYPE = 0
CLASSIFICATION_TYPE = U
NORAD_CAT_ID   = 66909
ELEMENT_SET_NO = 999
REV_AT_EPOCH   = 1353
BSTAR          = .12709E-2
MEAN_MOTION_DOT = .146757E-2
MEAN_MOTION_DDOT = 0

CCSDS_OMM_VERS = 2.0
CREATION_DATE  = 
ORIGINATOR     = 

OBJECT_NAME    = ISS OBJECT XW
OBJECT_ID      = 1998-067XW
CENTER_NAME    = EARTH
REF_FRAME      = TEME
TIME_SYSTEM    = UTC
MEAN_ELEMENT_THEORY = SGP/SGP4

EPOCH          = 2026-02-26T08:27:49.520736
MEAN_MOTION    = 15.65404578
ECCENTRICITY   = .0004341
INCLINATION    = 51.6265
RA_OF_ASC_NODE = 123.1932
ARG_OF_PERICENTER = 27.6872
MEAN_ANOMALY   = 332.4354

EPHEMERIS_TYPE = 0
CLASSIFICATION_TYPE = U
NORAD_CAT_ID   = 66910
ELEMENT_SET_NO = 999
REV_AT_EPOCH   = 1340
BSTAR          = .10924E-2
MEAN_MOTION_DOT = .112245E-2
MEAN_MOTION_DDOT = 0

CCSDS_OMM_VERS = 2.0
CREATION_DATE  = 
ORIGINATOR     = 

OBJECT_NAME    = ISS OBJECT XX
OBJECT_ID      = 1998-067XX
CENTER_NAME    = EARTH
REF_FRAME      = TEME
TIME_SYSTEM    = UTC
MEAN_ELEMENT_THEORY = SGP/SGP4

EPOCH          = 2026-02-26T10:59:54.750048
MEAN_MOTION    = 15.70039682
ECCENTRICITY   = .0006501
INCLINATION    = 51.6219
RA_OF_ASC_NODE = 121.6389
ARG_OF_PERICENTER = 20.9484
MEAN_ANOMALY   = 339.1779

EPHEMERIS_TYPE = 0
CLASSIFICATION_TYPE = U
NORAD_CAT_ID   = 66911
ELEMENT_SET_NO = 999
REV_AT_EPOCH   = 1342
BSTAR          = .15289E-2
MEAN_MOTION_DOT = .19206E-2
MEAN_MOTION_DDOT = 0

CCSDS_OMM_VERS = 2.0
CREATION_DATE  = 
ORIGINATOR     = 

OBJECT_NAME    = ISS OBJECT XY
OBJECT_ID      = 1998-067XY
CENTER_NAME    = EARTH
REF_FRAME      = TEME
TIME_SYSTEM    = UTC
MEAN_ELEMENT_THEORY = SGP/SGP4

EPOCH          = 2026-02-27T03:46:25.339008
MEAN_MOTION    = 15.61632866
ECCENTRICITY   = .0002485
INCLINATION    = 51.6278
RA_OF_ASC_NODE = 120.3277
ARG_OF_PERICENTER = 34.5227
MEAN_ANOMALY   = 325.5928

EPHEMERIS_TYPE = 0
CLASSIFICATION_TYPE = U
NORAD_CAT_ID   = 66912
ELEMENT_SET_NO = 999
REV_AT_EPOCH   = 1350
BSTAR          = .8627E-3
MEAN_MOTION_DOT = .75914E-3
MEAN_MOTION_DDOT = 0

CCSDS_OMM_VERS = 2.0
CREATION_DATE  = 
ORIGINATOR     = 

OBJECT_NAME    = ISS OBJECT XZ
OBJECT_ID      = 1998-067XZ
CENTER_NAME    = EARTH
REF_FRAME      = TEME
TIME_SYSTEM    = UTC
MEAN_ELEMENT_THEORY = SGP/SGP4

EPOCH          = 2026-02-26T13:59:54.655872
MEAN_MOTION    = 15.50854175
ECCENTRICITY   = .0009776
INCLINATION    = 51.6313
RA_OF_ASC_NODE = 126.9935
ARG_OF_PERICENTER = 149.0473
MEAN_ANOMALY   = 211.1094

EPHEMERIS_TYPE = 0
CLASSIFICATION_TYPE = U
NORAD_CAT_ID   = 67683
ELEMENT_SET_NO = 999
REV_AT_EPOCH   = 306
BSTAR          = .69811E-3
MEAN_MOTION_DOT = .40888E-3
MEAN_MOTION_DDOT = 0

CCSDS_OMM_VERS = 2.0
CREATION_DATE  = 
ORIGINATOR     = 

OBJECT_NAME    = GXIBA-1
OBJECT_ID      = 1998-067YA
CENTER_NAME    = EARTH
REF_FRAME      = TEME
TIME_SYSTEM    = UTC
MEAN_ELEMENT_THEORY = SGP/SGP4

EPOCH          = 2026-02-26T13:41:26.741760
MEAN_MOTION    = 15.52453844
ECCENTRICITY   = .0011233
INCLINATION    = 51.6306
RA_OF_ASC_NODE = 126.9091
ARG_OF_PERICENTER = 140.1266
MEAN_ANOMALY   = 220.0551

EPHEMERIS_TYPE = 0
CLASSIFICATION_TYPE = U
NORAD_CAT_ID   = 67684
ELEMENT_SET_NO = 999
REV_AT_EPOCH   = 306
BSTAR          = .11548E-2
MEAN_MOTION_DOT = .72297E-3
MEAN_MOTION_DDOT = 0

CCSDS_OMM_VERS = 2.0
CREATION_DATE  = 
ORIGINATOR     = 

OBJECT_NAME    = CORAL
OBJECT_ID      = 1998-067YB
CENTER_NAME    = EARTH
REF_FRAME      = TEME
TIME_SYSTEM    = UTC
MEAN_ELEMENT_THEORY = SGP/SGP4

EPOCH          = 2026-02-26T13:56:39.515424
MEAN_MOTION    = 15.51107174
ECCENTRICITY   = .0011675
INCLINATION    = 51.6315
RA_OF_ASC_NODE = 126.9792
ARG_OF_PERICENTER = 145.1158
MEAN_ANOMALY   = 215.0598

EPHEMERIS_TYPE = 0
CLASSIFICATION_TYPE = U
NORAD_CAT_ID   = 67685
ELEMENT_SET_NO = 999
REV_AT_EPOCH   = 306
BSTAR          = .75186E-3
MEAN_MOTION_DOT = .44531E-3
MEAN_MOTION_DDOT = 0

CCSDS_OMM_VERS = 2.0
CREATION_DATE  = 
ORIGINATOR     = 

OBJECT_NAME    = ISS OBJECT YC
OBJECT_ID      = 1998-067YC
CENTER_NAME    = EARTH
REF_FRAME      = TEME
TIME_SYSTEM    = UTC
MEAN_ELEMENT_THEORY = SGP/SGP4

EPOCH          = 2026-02-26T15:25:50.050560
MEAN_MOTION    = 15.51445447
ECCENTRICITY   = .00076137
INCLINATION    = 51.6316
RA_OF_ASC_NODE = 126.6439
ARG_OF_PERICENTER = 114.2311
MEAN_ANOMALY   = 245.9475

EPHEMERIS_TYPE = 0
CLASSIFICATION_TYPE = U
NORAD_CAT_ID   = 67686
ELEMENT_SET_NO = 999
REV_AT_EPOCH   = 307
BSTAR          = .88335406E-3
MEAN_MOTION_DOT = .53017E-3
MEAN_MOTION_DDOT = 0

CCSDS_OMM_VERS = 2.0
CREATION_DATE  = 
ORIGINATOR     = 

OBJECT_NAME    = LEOPARD
OBJECT_ID      = 1998-067YD
CENTER_NAME    = EARTH
REF_FRAME      = TEME
TIME_SYSTEM    = UTC
MEAN_ELEMENT_THEORY = SGP/SGP4

EPOCH          = 2026-02-27T03:53:05.718336
MEAN_MOTION    = 15.51023554
ECCENTRICITY   = .0007673
INCLINATION    = 51.6317
RA_OF_ASC_NODE = 124.1084
ARG_OF_PERICENTER = 119.2183
MEAN_ANOMALY   = 240.9575

EPHEMERIS_TYPE = 0
CLASSIFICATION_TYPE = U
NORAD_CAT_ID   = 67687
ELEMENT_SET_NO = 999
REV_AT_EPOCH   = 307
BSTAR          = .61698E-3
MEAN_MOTION_DOT = .36256E-3
MEAN_MOTION_DDOT = 0

CCSDS_OMM_VERS = 2.0
CREATION_DATE  = 
ORIGINATOR     = 

OBJECT_NAME    = ISS OBJECT YE
OBJECT_ID      = 1998-067YE
CENTER_NAME    = EARTH
REF_FRAME      = TEME
TIME_SYSTEM    = UTC
MEAN_ELEMENT_THEORY = SGP/SGP4

EPOCH          = 2026-02-26T13:54:37.249920
MEAN_MOTION    = 15.51284687
ECCENTRICITY   = .000761
INCLINATION    = 51.6319
RA_OF_ASC_NODE = 126.9710
ARG_OF_PERICENTER = 114.9063
MEAN_ANOMALY   = 245.2718

EPHEMERIS_TYPE = 0
CLASSIFICATION_TYPE = U
NORAD_CAT_ID   = 67688
ELEMENT_SET_NO = 999
REV_AT_EPOCH   = 298
BSTAR          = .82764E-3
MEAN_MOTION_DOT = .49335E-3
MEAN_MOTION_DDOT = 0

CCSDS_OMM_VERS = 2.0
CREATION_DATE  = 
ORIGINATOR     = 

OBJECT_NAME    = CREW DRAGON 12
OBJECT_ID      = 2026-031A
CENTER_NAME    = EARTH
REF_FRAME      = TEME
TIME_SYSTEM    = UTC
MEAN_ELEMENT_THEORY = SGP/SGP4

EPOCH          = 2026-02-26T22:17:44.073312
MEAN_MOTION    = 15.48321702
ECCENTRICITY   = .0008331
INCLINATION    = 51.6324
RA_OF_ASC_NODE = 125.5516
ARG_OF_PERICENTER = 137.1924
MEAN_ANOMALY   = 222.9714

EPHEMERIS_TYPE = 0
CLASSIFICATION_TYPE = U
NORAD_CAT_ID   = 67796
ELEMENT_SET_NO = 999
REV_AT_EPOCH   = 55463
BSTAR          = .23739E-3
MEAN_MOTION_DOT = .12356E-3
MEAN_MOTION_DDOT = 0

